Email,First Name,Last Name,Residential Address Street,Residential Address Locality,Residential Address State,Residential Address Postcode,Postal Address Street,Postal Address Locality,Postal Address State,Postal Address Postcode,Residential_lat,Residential_lng,Postal_lat,Postal_lng
colton_tromp@gmail.com,Darcy,Waters,8540 Charli Summit,AIRLIE BEACH,QLD,4802,376 Williamson Hill,ARTHUR RIVER,WA,6315,-20.272494000000002,148.71814657732955,-33.3441135,117.01571419732676
lindsay_bradtke@gmail.com,Georgia,Stewart,650 Harris Summit,ARCTURUS,QLD,4722,477 Jasmine Circle,ALDINGA,SA,5173,-23.975732999999998,148.32711448169016,-35.2673234,138.4831296
jaime_kuphal@yahoo.com,Joshua,Schmidt,53 Klein Circle,AMBLESIDE,TAS,7310,2979 Anthony Drive,AMOR,VIC,3825,-41.2050163,146.3748003,-37.939795000000004,146.4046230412041
odell.king@hotmail.com,Natalie,Smith,545 Summer Avenue,ALVIE,VIC,3249,5454 Koss Track,ANABRANCH SOUTH,NSW,2648,-38.2441811,143.5155992,-33.6929151,141.7057254
carlos@hotmail.com,Cameron,Schneider,46 Becker Summit,ALLANSFORD,VIC,3277,3137 Lakin Station St,ALLANS FLAT,VIC,3691,-38.3862028,142.6001551,-36.2944155,146.94292341122937
june@gmail.com,Oscar,King,727 Zoe Knoll,ADELAIDE RIVER,NT,846,71 Morissette Manor,AMHERST,VIC,3371,-13.2387657,131.1070072,-37.139846500000004,143.65653903202832
linsey.blanda@hotmail.com,Mia,Flatley,15 Hannah Circle,ARMADALE,WA,6112,696 Jenkins Parkway,AMBERLEY,QLD,4306,-32.1533106,116.0130563,-27.6304065,152.6980108651208
roger.prohaska@gmail.com,Charles,Wilson,85 Isaac Terrace,ALEXANDRA HILLS,QLD,3161,5414 Leannon Crest,ALSACE,QLD,4702,-27.5232672,153.2214907,-23.287394,149.2905304575663
arthur@yahoo.com,Owen,Carter,9300 Moss Run,ANKETELL,WA,6167,99 Levi Summit,ADARE,QLD,4343,-32.2197553,115.8667368,-27.5123015,152.28868017258898
barrett@yahoo.com,Ashley,Green,5023 Nader Lane,ANDAMOOKA,SA,5722,92 Bergstrom Run,ANTONYMYRE,WA,6714,-30.4534886,137.16501576788045,-20.6267825,117.07780048166553
salvatore_schuppe@gmail.com,Aidan,Kuhlman,201 Durgan Mall,ANNADALE,SA,5356,26 Cassin Knoll,ALEXANDRA HEADLAND,QLD,4572,-34.3891665,139.3881387,-26.669601999999998,153.10175199135801
karl@yahoo.com,Alexandra,Clarke,6591 Natalie Meadow,ARROWSMITH,WA,6525,8719 Adams Place,ANSONS BAY,TAS,7264,-29.554151,115.11588485488761,-41.0372935,148.2691093
karyn.kub@gmail.com,Samantha,Champlin,79 Eve Pass,ADARE,QLD,4343,67 Erdman Island,AUGATHELLA,QLD,4477,-27.5123015,152.28868017258898,-25.7968515,146.5891538
mackenzie_auer@gmail.com,Cameron,Haley,351 Heidi Court,ALPHINGTON,VIC,3078,460 Mccullough Manor,AIRVILLE,QLD,4807,-37.7783921,145.0312833,-19.6372465,147.35056619813304
lea.cummings@hotmail.com,Daniel,Braun,80 Ernser Avenue,ANNADALE,SA,5356,89 Eva Boulevard,AIRLY,VIC,3851,-34.3891665,139.3881387,-38.025259,147.10062811660103
julian@yahoo.com,Luke,Dare,544 Sanford Pass,AYLMERTON,NSW,2575,715 Tremblay Street,ARTHUR RIVER,TAS,7330,-34.4185998,150.4953005,-41.0494219,144.667346
sandee@yahoo.com,Blake,Feeney,2442 Grimes Island,ASHMONT,NSW,2650,174 Isabelle Track,AVISFORD,NSW,2850,-35.1244827,147.3325101,-32.739771,149.4823469
twila_morar@yahoo.com,Bella,Lockman,8813 Emily Meadow,ARMSTRONG CREEK,VIC,3217,74 Ali Circuit,ALLWORTH,NSW,2425,-38.2341184,144.3709512,-32.5399586,151.9589534
maryjo@yahoo.com,Lucy,Stokes,888 Mackenzie Ridge,AARONS PASS,NSW,2850,7423 Crooks Crest,ADAMSTOWN,NSW,2289,-32.8719444,149.8094444,-32.9337786,151.7200237
phillip@gmail.com,Archie,Barton,41 Taylor View Rd,ANGLEDOOL,NSW,2834,796 Madison Crest,ALMONDS,VIC,3727,-29.1100681,147.9176423,-36.2341665,146.05603068699222
sol@gmail.com,Jett,Monahan,8845 Braun Hill,ARMADALE,WA,6112,61 Emily Place,ANAMBAH,NSW,2320,-32.1533106,116.0130563,-32.6733333,151.4927778
aileen.berge@yahoo.com,Phoebe,Dare,823 O'neill Place,ALLENS RIVULET,TAS,7150,58 Walsh Trail,ARAKOON,NSW,2431,-43.01196,147.20886,-30.8864757,153.0709147
ozie.herzog@gmail.com,Lachlan,Howell,91 Samantha Parkway,ADAMS ESTATE,VIC,3984,9367 Smyth Way,ALBANY,WA,6330,-38.4247705,145.53145261079874,-35.0247822,117.883608
deane_donnelly@gmail.com,Alexander,Walker,25 Grace Crescent,APPILA,SA,5480,8683 Leffler Boulevard,ANDERGROVE,QLD,4740,-33.0497098,138.4289329,-21.0898372,149.1903543
ona@hotmail.com,Summer,Hand,24 Matilda Station St,ARCOONA,SA,5720,81 Bayer Loop,ABINGTON,QLD,4660,-31.1302928,137.1034847277803,-25.2021516,152.3270752
oren.west@yahoo.com,Archie,Douglas,15 Alyssa Street,ALBION PARK RAIL,NSW,2527,2907 Isabelle Terrace,ABERFOYLE PARK,SA,5159,-34.5625775,150.7978168,-35.0705635,138.6011311
todd@yahoo.com,Riley,West,2122 Goodwin Avenue,ARCADIA SOUTH,VIC,3631,2782 Carroll Street,ABERCORN,QLD,4627,-36.5931025,145.38127437318553,-25.137580999999997,151.15858654078357
loreta.bernier@hotmail.com,Audrey,Rohan,264 Maya Station St,APPLECROSS,WA,6153,770 Mason Plaza,AITKENVALE,QLD,4814,-32.0137091,115.8366566,-19.3019469,146.7660472
major_hermann@hotmail.com,Natalie,Hammes,33 Durgan Circle,AREEGRA,VIC,3480,1531 Victoria Parade,ARMIDALE,NSW,2350,-36.2320385,142.6799121472199,-30.5144881,151.6656564
hunter@gmail.com,Edward,Parisian,62 Lachlan Run,ARKAROOLA VILLAGE,SA,5732,201 Khan Street,ANTIGUA,QLD,4650,-30.3118393,139.3353485,-25.636086499999998,152.5914461311075
lanny.fay@gmail.com,Marcus,Kutch,2245 Jett Square,ARDROSSAN,SA,5571,7267 Chelsea Loop,ARCADIA,QLD,4819,-34.424675,137.915867,-19.1432945,146.85957385277385
ruthie@yahoo.com,Eli,Wood,157 Amy Crest,ASHBOURNE,VIC,3442,8970 Eve Terrace,AURUKUN,QLD,4892,-37.411647,144.46035695739747,-13.6020675,141.77068488792847
jim@yahoo.com,Phoenix,Douglas,6855 Erdman Mews,ARIAH PARK,NSW,2665,237 Williams Way,ADJUNGBILLY,NSW,2727,-34.3488941,147.2175709,-35.0859511,148.3985662
rima@gmail.com,Georgia,Adams,23 Bogan Parade,AGNES BANKS,NSW,2753,2053 Fay Run,ARCHIES CREEK,VIC,3995,-33.6145082,150.7114482,-38.548863,145.56498054788307
lamont@hotmail.com,Sarah,Boyle,3934 Levi Meadow,ALBION,QLD,4010,33 Oliver Estate Dr,ARTHURS CREEK,VIC,3099,-27.4303648,153.0420618,-37.5836798,145.207132
tod@yahoo.com,Abbey,Wilderman,77 Lowe Lane,ANTONYMYRE,WA,6714,183 Hugo Pass,ALAWOONA,SA,5311,-20.6267825,117.07780048166553,-34.7363837,140.509663
shantell@hotmail.com,Gemma,Cox,31 Sam Track,AUSTINS FERRY,TAS,7011,18 Skye Parade,ANTONYMYRE,WA,6714,-42.7736101,147.2486399,-20.6267825,117.07780048166553
margorie.larkin@gmail.com,Eli,Mayer,522 Scarlett Ridge,AVONDALE,NSW,2530,77 Zac Crescent,ANGURUGU,NT,822,-34.5230556,150.7327778,-13.9795273,136.4613667
karin@gmail.com,Alice,Nolan,819 Oliver Circuit,ARMSTRONG CREEK,QLD,4520,418 Berge Crescent,AKAROA,TAS,7216,-27.2187059,152.8084209,-41.3020897,148.3181547
nicolas@gmail.com,Lachlan,Beahan,40 Harber Ridge,ARCADIA SOUTH,VIC,3631,17 Justin Road,ARGENTON,NSW,2284,-36.5931025,145.38127437318553,-32.9352978,151.632185
anthony_collier@hotmail.com,Heidi,Hackett,105 Alex Junction,ANAMBAH,NSW,2320,43 Nicholas Street,ARAMARA,QLD,4620,-32.6733333,151.4927778,-25.60229,152.35686132131553
martin.wisoky@gmail.com,Kayla,White,2834 Piper Court,ARTHURTON,SA,5572,67 Turcotte Pass,ALICE SPRINGS,NT,870,-34.2582911,137.7556003,-23.6983884,133.8812885
julene_stiedemann@gmail.com,Stella,Garden,61 Turcotte Boulevard,ASHFIELD,QLD,4670,98 Green Track,ARDMONA,VIC,3629,-24.8726539,152.3971072,-36.378979,145.29540546184248
robert@hotmail.com,Nathan,Davies,778 Nicolas Summit,ASHBOURNE,VIC,3442,72 Kovacek Ridge,ASHWOOD,VIC,3147,-37.411647,144.46035695739747,-37.866672,145.1022346
morgan.fritsch@gmail.com,Benjamin,Doyle,38 Swift Run,ALYANGULA,NT,885,7321 Garden Knoll,ALCOMIE,TAS,7330,-13.8511843,136.4201454,-40.9348744,145.186698
sudie.kertzmann@hotmail.com,Tyler,Hand,17 Ashley Mall,ARALUEN,QLD,4570,51 Madison Mall,APPILA,SA,5480,-26.158403,152.6597339079196,-33.0497098,138.4289329
carolyne_huels@hotmail.com,Joel,Taylor,8515 Abigail Circuit,AUGATHELLA,QLD,4477,635 Eliza Place,ARGYLL,QLD,4721,-25.7968515,146.5891538,-23.253404500000002,147.5442109556709
shad@gmail.com,Audrey,Sanford,393 Layla Way,ADELONG,NSW,2729,9059 Matthew Road,ARGOON,NSW,2707,-35.3074897,148.0631466,-34.9015549,145.6751061
booker.roberts@gmail.com,Claudia,Borer,330 Angelina Avenue,ARGYLL,QLD,4721,126 D'amore Road,ADAMS ESTATE,VIC,3984,-23.253404500000002,147.5442109556709,-38.4247705,145.53145261079874
emelda.hoeger@yahoo.com,Willow,O'hara,21 Paterson Street,ALISON,NSW,2259,1866 Patel Mall,APPIN,NSW,2560,-33.265,151.3983333,-34.2029671,150.7872441
olin_okon@gmail.com,Elijah,Sanford,42 Hunter Pass,ALTON DOWNS,QLD,4702,91 Johnston Parade,ASHFIELD,WA,6054,-23.2972417,150.3766711,-31.9127941,115.9360896
herbert@gmail.com,Christian,Schroeder,5439 Grimes Estate Dr,AMAMOOR,QLD,4570,81 Luca Loop,ALLEENA,NSW,2671,-26.3453044,152.6746864,-34.0685026,147.1380858
ona_kuphal@yahoo.com,Abbey,O'keefe,23 Piper Estate Dr,ARALUEN,NT,870,23 Murphy Meadow,ALFORD,SA,5555,-23.6971,133.856,-33.8168462,137.821986
ramiro.predovic@hotmail.com,Mackenzie,Wolf,2228 Isaac Crest,ARDROSSAN,SA,5571,829 Sophie Crescent,ARCHER RIVER,QLD,4892,-34.424675,137.915867,-13.3673745,142.58087573798585
sheree.mertz@gmail.com,Summer,Spencer,6875 Kelly Knoll,ASHMONT,NSW,2650,147 Hill Crescent,ANGLE PARK,SA,5010,-35.1244827,147.3325101,-34.8566301,138.5610335
darnell@yahoo.com,Logan,Connelly,93 Flatley Boulevard,ADAMSTOWN HEIGHTS,NSW,2289,458 Isabel Crest,ACTON,ACT,2601,-32.9488889,151.7108333,-35.2852323,149.1129681
adan.crist@hotmail.com,Lachlan,Smyth,2950 Hamish Crescent,ALMA,VIC,3465,27 Phoebe View Rd,ALLESTREE,VIC,3305,-37.0245202,143.6821566,-38.2828148,141.631467
enedina@yahoo.com,Oscar,Watson,5976 Rohan Manor,ARRAWARRA HEADLAND,NSW,2456,3163 Dare Circle,ALAWA,NT,810,-30.060426,153.2016851,-12.3799071,130.8746623
soila@gmail.com,Summer,Parker,10 Champlin Pass,ARDLETHAN,NSW,2665,32 Spencer Square,ARTHUR RIVER,WA,6315,-34.3483333,146.9011111,-33.3441135,117.01571419732676
horacio.lemke@gmail.com,Liam,Bogan,6377 Rohan Circuit,ANDAMOOKA STATION,SA,5719,4080 Mitchell Avenue,ARIAH PARK,NSW,2665,-30.566585,137.15001419253298,-34.3488941,147.2175709
afton@hotmail.com,Abigail,Bayer,21 Holly Parkway,APPLETHORPE,QLD,4378,6815 Bella Run,ALLENVIEW,QLD,4285,-28.615750499999997,151.93600915657788,-27.911755,152.91602902703985
shellie@gmail.com,Sienna,Connelly,445 Mia Loop,ARDATH,WA,6419,2469 Scott Drive,ANNANDALE,NSW,2038,-32.0292141,118.0943551,-33.881224,151.1709976
terresa.torp@hotmail.com,Archie,Dooley,25 King Estate Dr,AUSTRALIND,WA,6233,539 Gutmann Parkway,AVENELL HEIGHTS,QLD,4670,-33.2807362,115.7204483,-24.8896919,152.3649484
floyd@yahoo.com,Amy,Leffler,1325 Hermiston Junction,ARALUEN,NT,870,6266 Mitchell Place,ALSTONVILLE,NSW,2477,-23.6971,133.856,-28.8412757,153.4405813
samual@yahoo.com,Daniel,Bode,50 Kris Terrace,ASPENDALE GARDENS,VIC,3195,21 Beau Circle,ARGYLE,WA,6239,-38.0221438,145.11984,-33.548003,115.77592132663847
derek@yahoo.com,Anthony,Brown,5261 Adam View Rd,ABBEY,WA,6280,6795 Miller Meadow,ALDOGA,QLD,4694,-33.6602,115.2596,-23.844797,151.0739805611455
bradly.shields@yahoo.com,Imogen,Graham,912 Barton View Rd,ALEXANDRA,VIC,3714,46 Alex Knoll,AWABA,NSW,2283,-37.192428,145.710775,-33.0129364,151.5416169
noella_willms@hotmail.com,Nicholas,Connelly,6748 Ernser View Rd,ADAMSTOWN HEIGHTS,NSW,2289,3128 Abigail Crescent,ANAMBAH,NSW,2320,-32.9488889,151.7108333,-32.6733333,151.4927778
kathrine@gmail.com,Isabelle,O'connell,8331 Evie Crescent,AUSTRALIA PLAINS,SA,5374,531 Bailey Junction,ABBOTSFORD,QLD,4670,-34.097735,139.1556029,-24.837838,152.0296298
valentine@yahoo.com,Paige,Mclaughlin,639 George Manor,AMBERLEY,QLD,4306,1259 Hand Meadow,ARMSTRONG CREEK,QLD,4520,-27.6304065,152.6980108651208,-27.2187059,152.8084209
chas@gmail.com,Charlie,Muller,5719 Lowe Ridge,ALBION PARK RAIL,NSW,2527,917 Evie Estate Dr,AUSTRAL,NSW,2179,-34.5625775,150.7978168,-33.9282672,150.8082824
suzanne@gmail.com,Harry,Nader,648 Hamish Mall,AIRDS,NSW,2560,12 Phoebe Loop,ALBERT PARK,VIC,3206,-34.09,150.8261111,-37.8452062,144.957105
gala@hotmail.com,Angus,Bergstrom,7612 Isabel Hill,ALBION,VIC,3020,8793 Campbell Manor,ASHFIELD,WA,6054,-37.77722335,144.82438949533855,-31.9127941,115.9360896
bailey.altenwerth@hotmail.com,Owen,Turcotte,362 Mason Track,ARCHIES CREEK,VIC,3995,3505 Morrison Hill,AGNES,VIC,3962,-38.548863,145.56498054788307,-38.684747,146.3962845181981
mamie.grady@gmail.com,Mitchell,Jacobs,24 Gutmann Loop,ALLEENA,NSW,2671,4888 Mayer Road,ALLANSFORD,VIC,3277,-34.0685026,147.1380858,-38.3862028,142.6001551
rolland@gmail.com,Molly,Baumbach,120 Lakin Boulevard,AMERICAN BEACH,SA,5222,93 Hansen Loop,ALLAMBEE SOUTH,VIC,3871,-35.7670652,137.8832372,-38.3533865,146.10151536509113
sulema@gmail.com,Lincoln,Hamilton,2180 Windler Terrace,ALLIGATOR CREEK,QLD,4740,72 Howe Crest,ARTHURTON,SA,5572,-21.3073105,149.2267965222255,-34.2582911,137.7556003
branden.abshire@hotmail.com,Claudia,Moore,82 Hughes Crescent,ALLEENA,NSW,2671,20 Macdonald Plaza,ALVA,QLD,4807,-34.0685026,147.1380858,-19.410888,147.45965727981653
jewel_altenwerth@gmail.com,Samuel,Kemmer,77 Natalie Circle,ANNANGROVE,NSW,2156,74 Dare Terrace,ADJUNGBILLY,NSW,2727,-33.6574838,150.9460077,-35.0859511,148.3985662
maisie_kuvalis@hotmail.com,Lincoln,Cruickshank,3970 Hermiston View Rd,ANDERLEIGH,QLD,4570,75 Anthony Road,ALSTONVILLE,NSW,2477,-26.0174055,152.67900356039007,-28.8412757,153.4405813
sharika_jacobi@yahoo.com,Blake,Hughes,60 Ryan Parade,ASHENDON,WA,6111,76 Madison Circuit,ANDO,NSW,2631,-32.19139,116.1792,-36.737995,149.2607397
jed@hotmail.com,Cooper,Richards,63 Emma Mews,ALBION,QLD,4010,4599 Fay Track,ARMSTRONG CREEK,QLD,4520,-27.4303648,153.0420618,-27.2187059,152.8084209
laci@gmail.com,Kayla,Larkin,432 Finn Meadow,ANSTEAD,QLD,4070,7069 Gibson Circuit,AXE CREEK,VIC,3551,-27.5404815,152.8638552,-36.863510000000005,144.38470220073737
theda_kihn@yahoo.com,Charlie,Ebert,7979 Lucy Junction,ALVA,QLD,4807,87 Kreiger Circuit,AUSTINVILLE,QLD,4213,-19.410888,147.45965727981653,-28.1331291,153.3158014
shannon_lindgren@yahoo.com,Jessica,Quinn,22 Price Meadow,ALLANSON,WA,6225,877 Claudia Island,ASQUITH,NSW,2077,-33.3349302,116.0994037,-33.6884076,151.1078178
celestine@gmail.com,Emily,Walter,926 Wood Crescent,ARATULA,NSW,2714,7413 Reynolds Lane,ANDROMACHE,QLD,4800,-35.8095072,145.2762733,-20.5559791,148.4441771
davina.franecki@hotmail.com,Victoria,Kunde,786 Schroeder Parade,ARNDELL PARK,NSW,2148,4896 Howe Parkway,ALISON,NSW,2259,-33.79,150.8761111,-33.265,151.3983333
casimira@gmail.com,Ava,Davies,2544 Schmitt Circle,ABBEY,WA,6280,1133 Alexandra Summit,ALTONA,SA,5351,-33.6602,115.2596,-34.5953566,138.9128691
ellis@hotmail.com,Phoebe,Tremblay,466 Isabel Ridge,AROONA,QLD,4551,6317 Sofia Loop,ACACIA HILLS,NT,822,-26.7814131,153.1176555,-12.7588199,131.1496296
alishia.wiegand@gmail.com,Hayden,Walker,8851 Wood Track,ARALUEN,QLD,4570,3147 Hyatt Island,ALFREDTOWN,NSW,2650,-26.158403,152.6597339079196,-35.1611333,147.5124215
dominique@hotmail.com,Gemma,Wright,64 Morrison Place,ARDROSSAN,SA,5571,7602 Hudson Parade,ADAVALE,QLD,4474,-34.424675,137.915867,-25.9084136,144.5976948
phylicia@hotmail.com,Xavier,Mckenzie,35 Violet Island,ANGAS PLAINS,SA,5255,41 Charlotte Mews,ABERGLASSLYN,NSW,2320,-35.334938199999996,138.96950777457306,-32.6983338,151.5344427
abram_christiansen@gmail.com,Amelie,Parker,2554 Mckenzie Estate Dr,ALBION,QLD,4822,8073 Ava Manor,AUSTRAL EDEN,NSW,2440,-21.337223,142.625275,-31.0316667,152.9344444
belen@hotmail.com,Ali,Tremblay,80 Hunter Parade,ARGOON,QLD,4702,96 Lucy Station St,ANTONYMYRE,WA,6714,-24.240327,150.4940057,-20.6267825,117.07780048166553
jimmy@yahoo.com,Caleb,Crooks,98 Hane Circuit,AROONA,QLD,4551,38 Addison Run,ASHFIELD,NSW,2131,-26.7814131,153.1176555,-33.8894781,151.1274125
arletta_mosciski@gmail.com,Kiara,King,77 Archie Loop,AIRDS,NSW,2560,10 Campbell Crescent,ASCOT,QLD,4360,-34.09,150.8261111,-27.824796,151.9984418371806
tiera@gmail.com,Joel,Kohler,2032 Olivia Junction,AMERICAN RIVER,SA,5221,7446 Muller Square,ALDAVILLA,NSW,2440,-35.7860171,137.7698917,-31.0816667,152.7677778
jon.ullrich@hotmail.com,Scarlett,Collier,110 Watson Junction,ARGYLE,VIC,3523,320 Sarah Avenue,ALDGATE,SA,5154,-36.967044,144.71503036879437,-35.0152371,138.7351789
glennis@yahoo.com,Audrey,Bogan,77 Baumbach Crest,AVALON,VIC,3212,908 Mccullough Drive,AITKENVALE,QLD,4814,-38.0844754,144.4258508,-19.3019469,146.7660472
bennie@hotmail.com,Lillian,Parisian,8179 Bosco Terrace,AVALON,VIC,3212,946 Sam Avenue,ALTONA,VIC,3018,-38.0844754,144.4258508,-37.86715875,144.82949742472704
lizzie_deckow@gmail.com,Mikayla,Patel,252 Mason Hill,ARGYLE,VIC,3523,8792 Marcus Street,ACTON PARK,WA,6280,-36.967044,144.71503036879437,-33.7533091,115.3814621
lauran@hotmail.com,Claudia,Parisian,34 Ward Crest,ASHCROFT,NSW,2168,59 D'amore Terrace,ALBION PARK,NSW,2527,-33.915,150.9011111,-34.5708425,150.7752326
regan.adams@yahoo.com,Oscar,Jackson,8772 Savannah Lane,AULDANA,SA,5072,435 Patel Pass,ARDROSS,WA,6153,-34.9180046,138.6868888,-32.0271228,115.8355245
debroah.hayes@yahoo.com,Lily,Green,3010 Abbey Crest,ALFREDTON,VIC,3350,5451 Jacobs Circle,ARGALONG,NSW,2720,-37.558214,143.7998153,-35.315,148.4344444
karren@gmail.com,Elijah,Fisher,731 Rodriguez Place,ARALUEN,NSW,2622,534 Mikayla Way,ARTHURS LAKE,TAS,7030,-35.6483333,149.8177778,-42.0083152,146.9556532
sydney.hirthe@hotmail.com,Amber,Edwards,73 Ellie Loop,ARRAWARRA HEADLAND,NSW,2456,38 Bailey Square,ARCHER,NT,830,-30.060426,153.2016851,-12.5150609,130.9649876
rosendo_schaefer@yahoo.com,Levi,Davis,6171 Eve Knoll,AMITY,QLD,4183,149 Harvey Island,AUCHMORE,VIC,3570,-27.3991661,153.4497223,-36.476927,144.09218449571566
corazon_turcotte@yahoo.com,Chelsea,Beier,9542 Bella Lane,ANAMA,SA,5464,153 Patrick Pass,ANKETELL,WA,6167,-33.7130236,138.5557068,-32.2197553,115.8667368
donte_vonrueden@hotmail.com,Benjamin,Mills,119 Rose Mall,AEROGLEN,QLD,4870,99 Thomas Drive,ABBOTSFORD,NSW,2046,-16.8843632,145.7451836,-33.8505529,151.129759
simona@yahoo.com,Eli,Cole,24 Ivy Parkway,ALTON DOWNS,QLD,4702,297 Crooks Place,AVENELL HEIGHTS,QLD,4670,-23.2972417,150.3766711,-24.8896919,152.3649484
brooks@yahoo.com,Charli,Mueller,80 Andrew Hill,ANNUELLO,VIC,3549,6701 Kessler Run,ACLAND,QLD,4401,-34.855289,142.80087295681284,-27.3175555,151.6831346312784
donte@yahoo.com,Kayla,Schmitt,1096 Smitham Street,APOINGA,SA,5413,553 Justin Parkway,ANTIGUA,QLD,4650,-33.9094322,138.92994407539157,-25.636086499999998,152.5914461311075
theodore@hotmail.com,Jade,Barton,53 Murphy Knoll,ATTUNGA,NSW,2345,3760 Caitlin Street,AMBY,QLD,4462,-30.9283982,150.8437118,-26.532866499999997,148.1731617453616
max@gmail.com,Zara,Gleason,2839 Anna Parkway,ALTONA NORTH,VIC,3025,7742 Bailey Street,ALLAWAH,NSW,2218,-37.8378229,144.8342853,-33.9727133,151.1145545
renaldo.kirlin@hotmail.com,Lachlan,Bruen,3506 Lynch Boulevard,AUBURN,NSW,2144,18 Elijah Lane,AVON,SA,5501,-33.8545702,151.0255673,-34.27690615,138.33903101339558
cruz@gmail.com,Phoebe,Harber,5677 Price Plaza,ANULA,NT,812,45 Kunde Parkway,ARTHUR RIVER,WA,6315,-12.3922305,130.8915248,-33.3441135,117.01571419732676
savannah@hotmail.com,Paige,Rodriguez,95 Martin Circuit,AVON,NSW,2574,264 William Road,ANABRANCH SOUTH,NSW,2648,-34.4252778,150.6758333,-33.6929151,141.7057254
gaylord.crist@gmail.com,Skye,Williamson,74 Jordan Grove,ABERGOWRIE,QLD,4850,13 Kayla Estate Dr,ALMA,SA,5401,-18.438905,145.92407218687336,-34.2659394,138.630459
sid@gmail.com,Mia,Tromp,9403 Brown Track,ASHMONT,NSW,2650,611 Oscar Manor,ANGLE PARK,SA,5010,-35.1244827,147.3325101,-34.8566301,138.5610335
heidi_gerhold@yahoo.com,Molly,Sanford,756 Huel Manor,ATTWOOD,VIC,3049,3371 Heaney Lane,ALLENS RIVULET,TAS,7150,-37.6670148,144.884862,-43.01196,147.20886
jacques_halvorson@yahoo.com,Hamish,Emmerich,93 Kirlin Avenue,ASCOT,QLD,4007,17 Jasmine Island,AMITY,QLD,4183,-27.4318955,153.0630132,-27.3991661,153.4497223
andera@yahoo.com,Madeline,Grant,98 Ella Road,ABBEY,WA,6280,399 D'amore Hill,ARAWATA,VIC,3951,-33.6602,115.2596,-38.394622,145.88277296771855
dick.herzog@yahoo.com,Leo,Gibson,420 Isabel Run,APSLAWN,TAS,7190,46 Isabella Place,AVON,SA,5501,-41.9704605,148.1511794,-34.27690615,138.33903101339558
shandi@yahoo.com,Gemma,Little,176 Hermann Meadow,ALICE CREEK,QLD,4610,958 Charles Lane,ASHBOURNE,VIC,3442,-26.763254,151.61703213780874,-37.411647,144.46035695739747
harvey.sawayn@yahoo.com,Lola,Larson,1756 Rees Street,ASCOT,QLD,4360,4627 Thomas Road,ALLENDALE EAST,SA,5291,-27.824796,151.9984418371806,-38.0044384,140.7097527
reyna@yahoo.com,Chloe,Reynolds,4926 Murphy Road,ARRAWARRA,NSW,2456,873 Welch Junction,ALBION PARK,NSW,2527,-30.0511111,153.1911111,-34.5708425,150.7752326
rex_hermiston@yahoo.com,Summer,Barton,98 Greenfelder Summit,AVOCA,TAS,7213,87 Hannah Lane,ALLORA,QLD,4362,-41.780565,147.723155,-28.020298,151.9865208526317
chiquita@gmail.com,Jasper,Phillips,55 Andrew Crescent,ADELAIDE PARK,QLD,4703,5816 Zac Street,ACHERON,VIC,3714,-23.0896126,150.7019728,-37.2705795,145.70824410305514
anna@gmail.com,James,Hansen,75 Matthew Track,ANAMA,SA,5464,3120 Skye Station St,ASHGROVE,QLD,4060,-33.7130236,138.5557068,-27.44306,152.9827648731527
arlen_strosin@gmail.com,William,Tromp,351 Phillips Loop,ALLENDALE,VIC,3364,8453 Michael Crescent,ADJUNGBILLY,NSW,2727,-37.3701648,143.9229115,-35.0859511,148.3985662
raymond_kutch@gmail.com,Audrey,Barrows,51 Mia Track,ARCADIA SOUTH,VIC,3631,4936 Daniel Court,ANDREWS FARM,SA,5114,-36.5931025,145.38127437318553,-34.6749515,138.6595143
carmina.rutherford@gmail.com,Stephanie,O'hara,96 Charles Way,ANGASTON,SA,5353,65 Joshua Junction,ANULA,NT,812,-34.5027712,139.0490357,-12.3922305,130.8915248
alona@gmail.com,Phoenix,Muller,912 Thompson Circle,ALFRED COVE,WA,6154,29 Hannah Place,ASHMONT,NSW,2650,-32.0328506,115.8170316,-35.1244827,147.3325101
karan@hotmail.com,Lachlan,Thomson,62 Mueller Run,APPLEBY,NSW,2340,797 Isabella Terrace,ANGLERS REST,VIC,3898,-30.965,150.8511111,-37.0188265,147.47220297551968
glenn_robel@gmail.com,Beau,Gibson,487 Lincoln Mews,AVON,SA,5501,8110 Samantha Mall,ADAVALE,QLD,4474,-34.27690615,138.33903101339558,-25.9084136,144.5976948
gus@gmail.com,Amelia,Stanton,396 Emma Mews,ASHBOURNE,VIC,3442,712 Max Mews,ASPENDALE GARDENS,VIC,3195,-37.411647,144.46035695739747,-38.0221438,145.11984
karma.stanton@hotmail.com,Toby,Kovacek,9826 Adam Parkway,ANAKIE,VIC,3213,33 Stokes Court,ACHERON,VIC,3714,-37.940835,144.28997769440335,-37.2705795,145.70824410305514
elton@hotmail.com,Leo,Mills,203 Rolfson Knoll,ANTONYMYRE,WA,6714,8914 Griffiths Run,ALBERTON,VIC,3971,-20.6267825,117.07780048166553,-38.615880000000004,146.66289476813358
marcella_buckridge@yahoo.com,Jasper,Hall,157 Jacob Summit,ARMSTRONG BEACH,QLD,4737,66 Anthony Avenue,ABBEYWOOD,QLD,4613,-21.445357,149.2686148891206,-26.1075825,151.64642182971647
steve.nitzsche@gmail.com,Sarah,Shields,34 Kreiger Circle,ALLEENA,NSW,2671,378 Molly Manor,APPLEBY,NSW,2340,-34.0685026,147.1380858,-30.965,150.8511111
bernardina.nienow@gmail.com,Maddison,Little,31 Thompson Manor,ALTONA,VIC,3018,424 Borer View Rd,ALBERTON,QLD,4207,-37.86715875,144.82949742472704,-27.707543,153.26622308788458
fidel@yahoo.com,Lucas,Tillman,4985 Bosco Trail,ANTIGUA,QLD,4650,2447 Piper Square,AVONDALE,QLD,4670,-25.636086499999998,152.5914461311075,-24.764496,152.14287334485806
sonya@hotmail.com,Victoria,Kiehn,30 Dooley Square,AVONSLEIGH,VIC,3782,55 Kai Mews,AUBIN GROVE,WA,6164,-37.9208356,145.4688212,-32.1549359,115.85795
al@yahoo.com,Violet,Morrison,478 Schroeder Circuit,AVENEL,VIC,3664,61 Kohler Boulevard,ARDLETHAN,NSW,2665,-36.932182499999996,145.31296101521568,-34.3483333,146.9011111
tynisha@hotmail.com,Kiara,Kris,5081 Hermann Crest,ACACIA HILLS,NT,822,628 Ryan Station St,ASHBURTON,VIC,3147,-12.7588199,131.1496296,-37.862047,145.0812907
emely_daniel@yahoo.com,Bella,Hayes,3364 Dickinson Station St,ASHFIELD,QLD,4670,8704 Holly Square,AMELUP,WA,6338,-24.8726539,152.3971072,-34.2237086,118.2203895
blanch@yahoo.com,Ryan,Macdonald,767 Isabel Boulevard,ASHENDON,WA,6111,977 Huel Way,ACTON PARK,WA,6280,-32.19139,116.1792,-33.7533091,115.3814621
carrol@yahoo.com,Elijah,Hessel,757 Adam Junction,ALBERTON,TAS,7263,90 Wilkinson Plaza,AVOCA,TAS,7213,-41.28814,147.79086,-41.780565,147.723155
modesto_hagenes@gmail.com,Stephanie,O'connell,803 Hane Loop,AYLMERTON,NSW,2575,5675 Lewis Circle,ADELONG,NSW,2729,-34.4185998,150.4953005,-35.3074897,148.0631466
kermit@gmail.com,Declan,Harber,7328 Graham Square,ANGELO RIVER,WA,6642,420 Imogen Avenue,ANGOURIE,NSW,2464,-23.8423688,118.5223218743849,-29.478884,153.3600421
gene@hotmail.com,Aidan,Davies,471 Lucy Station St,AMBLESIDE,TAS,7310,4822 Jacobi Knoll,ASHBOURNE,VIC,3442,-41.2050163,146.3748003,-37.411647,144.46035695739747
man@gmail.com,Edward,Hughes,33 Beahan Square,AUSTRAL,NSW,2179,77 Murray Meadow,ANGLERS REST,VIC,3898,-33.9282672,150.8082824,-37.0188265,147.47220297551968
joanie.feil@yahoo.com,Evie,Boyer,163 Griffiths Lane,ALEXANDRA HEADLAND,QLD,4572,642 Farrell Station St,ADAMSTOWN,NSW,2289,-26.669601999999998,153.10175199135801,-32.9337786,151.7200237
lu@yahoo.com,Mason,Champlin,943 Gabriel Manor,ASCOT,VIC,3551,9381 Sam Avenue,AVALON BEACH,NSW,2107,-36.7077539,144.3263626,-33.6365039,151.3290299
junie@yahoo.com,Luke,Nguyen,30 Jessica Hill,APPLECROSS,WA,6153,3470 Wilderman Court,ANNUELLO,VIC,3549,-32.0137091,115.8366566,-34.855289,142.80087295681284
norene_little@gmail.com,Owen,Mason,1547 Kuhlman Junction,ALDERSHOT,QLD,4650,926 Maya Square,ANABRANCH SOUTH,NSW,2648,-25.4623125,152.66822764580698,-33.6929151,141.7057254
marisha_keebler@gmail.com,Ivy,Kirlin,7639 Zara Plaza,ALMADEN,QLD,4871,42 Thomas Drive,ALLORA,QLD,4362,-17.422809,144.6478726166868,-28.020298,151.9865208526317
betsey_gorczany@gmail.com,Abby,Jacobi,6394 Clark Estate Dr,ARMSTRONG CREEK,QLD,4520,53 Monahan Circuit,ARMIDALE,NSW,2350,-27.2187059,152.8084209,-30.5144881,151.6656564
stephane.gusikowski@gmail.com,Jake,Champlin,34 Emmerich Track,ARAWATA,VIC,3951,837 Alex Pass,ABERCROMBIE,NSW,2795,-38.394622,145.88277296771855,-33.3910256,149.5556273
allie_howe@gmail.com,Jacob,Weber,424 Jayden Terrace,ABBOTSHAM,TAS,7315,17 Alexis Estate Dr,ARCHERTON,VIC,3723,-41.21302,146.17677,-36.869885,146.1939993741425
valrie_predovic@hotmail.com,Callum,Wilderman,453 Jasper Drive,AMELUP,WA,6338,40 Mills Run,ALFORD,SA,5555,-34.2237086,118.2203895,-33.8168462,137.821986
larry@yahoo.com,Molly,Hudson,332 Taylor Street,ALISON,NSW,2420,598 Bosco Place,ALLANSON,WA,6225,-32.4313903,151.7738859,-33.3349302,116.0994037
jillian@yahoo.com,Audrey,Cole,93 Roberts Island,ALDINGA BEACH,SA,5173,621 Isaac Loop,ALTONA NORTH,VIC,3025,-35.279293,138.4604028,-37.8378229,144.8342853
sheilah_zulauf@yahoo.com,Isabella,Bogan,552 Nathan Avenue,AYLMERTON,NSW,2575,75 Anderson Junction,ANDOVER,TAS,7120,-34.4185998,150.4953005,-42.33117,147.44811
maureen@gmail.com,Isabella,Becker,7837 John Court,ABERGLASSLYN,NSW,2320,7365 Gibson Street,ARATULA,NSW,2714,-32.6983338,151.5344427,-35.8095072,145.2762733
donovan.jones@yahoo.com,Alexandra,Goodwin,5493 Borer Crescent,ATKINSONS DAM,QLD,4311,5960 Sofia Street,AVOCA,TAS,7213,-27.4138715,152.42719678837207,-41.780565,147.723155
evita@gmail.com,Max,Harvey,3452 Charles Knoll,ALDINGA,SA,5173,7617 Kris Junction,AVON,NSW,2574,-35.2673234,138.4831296,-34.4252778,150.6758333
nadine_bosco@yahoo.com,Annabelle,Hudson,4860 Lauren Plaza,ARIAH PARK,NSW,2665,65 Khan Plaza,ALTONA,VIC,3018,-34.3488941,147.2175709,-37.86715875,144.82949742472704
pamella_hudson@gmail.com,Jake,Jacobi,894 Andrew Trail,ALDAVILLA,NSW,2440,961 Donnelly Circle,ARMATREE,NSW,2828,-31.0816667,152.7677778,-31.4470716,148.4792822
grace_spencer@yahoo.com,Lola,Corkery,8166 Ebert Island,AMAMOOR,QLD,4570,1307 Bruen Crescent,ASHFIELD,QLD,4670,-26.3453044,152.6746864,-24.8726539,152.3971072
carlo@gmail.com,Edward,Larkin,26 Doherty Mall,ANGAS VALLEY,SA,5238,2108 Schmidt Crescent,ARNOLD,VIC,3551,-34.7563343,139.2941415,-36.6721335,143.8583019665265
augustine_oconner@gmail.com,Mackenzie,Koelpin,889 Jasmine Run,ALBERTON,QLD,4207,426 Lowe Square,ANNANGROVE,NSW,2156,-27.707543,153.26622308788458,-33.6574838,150.9460077
micha.morar@hotmail.com,Isla,Morissette,37 Bosco Hill,ADA,VIC,3833,6198 Nicolas Ridge,AUSTINMER,NSW,2515,-37.840864499999995,145.85528242041127,-34.3064627,150.9292162
monty_rath@hotmail.com,Jacob,Thomas,5508 Cooper Mews,ALBION PARK RAIL,NSW,2527,717 Georgia Place,ANNIEBROOK,WA,6280,-34.5625775,150.7978168,-33.66798,115.1676
clint_schroeder@yahoo.com,Eli,Stewart,2955 Leah Run,ATHOL,QLD,4350,75 O'conner Crescent,AUBIGNY,QLD,4401,-27.612617,151.76928322570416,-27.509236,151.6659979299971
clement_bosco@gmail.com,Adam,Hessel,796 Henry Manor,ARAMAC,QLD,4726,282 Chase Boulevard,ALEXANDRA,QLD,4740,-22.9710251,145.2438709,-21.162400499999997,149.09573347493057
pam.stark@hotmail.com,Logan,Kemmer,77 Mia Street,ABBOTSFORD,NSW,2046,548 Schneider Summit,ARTHURTON,SA,5572,-33.8505529,151.129759,-34.2582911,137.7556003
laverna@hotmail.com,Isabelle,Hall,8726 Barrows Summit,AVELEY,WA,6069,3744 Emma View Rd,AVELEY,WA,6069,-31.787069,115.9862261,-31.787069,115.9862261
deedra@yahoo.com,Audrey,Nader,217 Mason Square,AVONDALE HEIGHTS,VIC,3034,64 Thomas View Rd,ADELAIDE LEAD,VIC,3465,-37.7614537,144.862141,-37.085589999999996,143.6693260420048
shantell@gmail.com,Oscar,Brown,995 Ernser Loop,ASHFORD,NSW,2361,915 Chase Junction,ADELONG,NSW,2729,-29.3257299,151.0945365,-35.3074897,148.0631466
theron@yahoo.com,Chase,Marks,618 Corwin Estate Dr,APPIN,VIC,3579,6953 Kovacek Estate Dr,ALLYNBROOK,NSW,2311,-35.875072,143.87390950506887,-32.3620604,151.5363314
neomi.prosacco@gmail.com,Anna,Grady,251 O'conner Summit,ANTILL PONDS,TAS,7120,9675 Klein Circle,AUBURN,SA,5451,-42.2081546,147.4044661,-34.026398,138.6859174
malorie@gmail.com,Benjamin,Schultz,326 Mitchell Manor,ANKETELL,WA,6167,4242 Finn Grove,AMHERST,VIC,3371,-32.2197553,115.8667368,-37.139846500000004,143.65653903202832
anthony@yahoo.com,Samuel,Macdonald,192 Jordan Trail,ALICE,NSW,2469,7427 Sauer Summit,AVONMORE,VIC,3559,-29.0523141,152.5917463,-36.5349865,144.54149899295862
phung@hotmail.com,Ryan,Kunde,99 Mitchell Court,ARRAWARRA,NSW,2456,56 Gabriel Grove,ANNADALE,SA,5356,-30.0511111,153.1911111,-34.3891665,139.3881387
vonda@gmail.com,Sofia,Thomas,437 Connor Drive,ALLORA,QLD,4362,64 Imogen Boulevard,ARTHURS CREEK,VIC,3099,-28.020298,151.9865208526317,-37.5836798,145.207132
christopher.daugherty@hotmail.com,Levi,Gleason,2360 Dickens Loop,ACTON,ACT,2601,482 Patrick Place,ACTON,ACT,2601,-35.2852323,149.1129681,-35.2852323,149.1129681
randolph@yahoo.com,Violet,Goldner,49 Owen Crescent,AVELEY,WA,6069,76 Aiden Place,ANABRANCH NORTH,NSW,2648,-31.787069,115.9862261,-33.291662,141.6621635
fritz_hauck@yahoo.com,Owen,Casper,8828 Elijah Meadow,AFTERLEE,NSW,2474,9801 Casper Grove,ARANBANGA,QLD,4625,-28.5854284,152.8284051,-25.8130915,151.6578500985112
elias.mills@gmail.com,Ellie,Howell,4006 Cruickshank Mall,ARABLE,NSW,2630,29 Stanton Drive,AMAROO,ACT,2914,-36.39,148.9844444,-35.169587,149.1280212
pearlene.gusikowski@gmail.com,Amelie,Carter,917 Green Run,ANNANDALE,QLD,4814,836 Lilly Plaza,ANABRANCH NORTH,NSW,2648,-19.3122951,146.7790291,-33.291662,141.6621635
alycia@yahoo.com,Ashley,Jacobi,9614 Charli Trail,ADAMS ESTATE,VIC,3984,394 Fisher Hill,ARRINO,WA,6519,-38.4247705,145.53145261079874,-29.4418416,115.6279102
rocco.tremblay@gmail.com,Stella,Tremblay,78 Cooper Circuit,ALISON,NSW,2259,2228 Hyatt Circuit,ALFRED COVE,WA,6154,-33.265,151.3983333,-32.0328506,115.8170316
juliann.feeney@hotmail.com,Mason,Morissette,176 Cormier Drive,ALBERT,NSW,2873,11 Lily Circuit,ALBANY,WA,6330,-32.3559077,147.5061543,-35.0247822,117.883608
mertie.runolfsdottir@yahoo.com,Gemma,James,590 Sebastian Trail,ADVENTURE BAY,TAS,7150,84 Aidan Knoll,ANGURUGU,NT,822,-43.3609701,147.3284644,-13.9795273,136.4613667
dale@gmail.com,Alyssa,Rowe,2338 Beau Knoll,AVENELL HEIGHTS,QLD,4670,99 Scarlett Court,ABERDEEN,NSW,2336,-24.8896919,152.3649484,-32.1668599,150.8919596
elisha@gmail.com,Lachlan,Hartmann,29 Haley Lane,ARAMAC,QLD,4726,95 Quigley Ridge,ADVENTURE BAY,TAS,7150,-22.9710251,145.2438709,-43.3609701,147.3284644
hosea.swift@yahoo.com,John,Kessler,1841 Clarke Plaza,ABBEYARD,VIC,3737,6567 Williams Station St,ARMADALE,VIC,3143,-37.01814195,146.79360433886188,-37.856282,145.0191181
cherly@hotmail.com,Lachlan,Fadel,678 Declan Summit,ARCADIA SOUTH,VIC,3631,3052 Joel Hill,AGNES WATER,QLD,4677,-36.5931025,145.38127437318553,-24.223913,151.90631629098056
eusebio.raynor@yahoo.com,Jayden,Hand,5651 Abby Road,ARCHER,NT,830,96 Zara Crest,ARUNDEL,QLD,4214,-12.5150609,130.9649876,-27.9360655,153.3653514
joey@yahoo.com,Lucas,Larson,466 Wright Square,ADARE,QLD,4343,63 Mills Station St,AVELEY,WA,6069,-27.5123015,152.28868017258898,-31.787069,115.9862261
kenny@yahoo.com,Ruby,Hoppe,293 Isaac Summit,ABERFELDY,VIC,3825,84 Edwards Island,ANGOURIE,NSW,2464,-37.7021795,146.3790537620286,-29.478884,153.3600421
cyndy@hotmail.com,Alana,Lynch,34 Erdman Drive,ANGAS VALLEY,SA,5238,378 Lang Station St,ALEXANDRA BRIDGE,WA,6288,-34.7563343,139.2941415,-34.167174,115.20527026465064
casandra_mccullough@yahoo.com,Kayla,Dietrich,52 Monahan Island,ABBA RIVER,WA,6280,824 Holly Circle,ALISON,NSW,2259,-33.6813,115.491,-33.265,151.3983333
hershel@yahoo.com,Patrick,Mclaughlin,1737 Jacobs Mews,ARBOUIN,QLD,4892,3420 Finn Pass,ALABAMA HILL,QLD,4820,-17.103690999999998,144.02006699990278,-20.083334,146.2477875
sung.olson@hotmail.com,Zac,Armstrong,629 Thompson Road,ARRAWARRA,NSW,2456,7824 Angelina Court,ALBINIA,QLD,4722,-30.0511111,153.1911111,-24.449273499999997,148.4026185586191
nicholas@yahoo.com,Cameron,Heaney,159 Emma Summit,ABERCROMBIE,NSW,2795,6519 Mckenzie View Rd,ASHWOOD,VIC,3147,-33.3910256,149.5556273,-37.866672,145.1022346
nathan@hotmail.com,Hamish,Khan,1843 Sophie Street,ALICE,NSW,2469,4585 Koelpin Hill,ARKELL,NSW,2795,-29.0523141,152.5917463,-33.7316723,149.3844415
concepcion@yahoo.com,Amy,Kreiger,12 Clarke Circle,ARTHURS LAKE,TAS,7030,6457 Thompson Estate Dr,ALBANY CREEK,QLD,4035,-42.0083152,146.9556532,-27.3464977,152.9652933
adrian@hotmail.com,Joseph,Hughes,6133 Spencer Track,ARNOLD,NT,852,6973 Bella Mall,AARONS PASS,NSW,2850,-16.143139750000003,134.38383200622008,-32.8719444,149.8094444
margarito.sporer@gmail.com,Isabella,Fay,191 Emily Boulevard,ASHFORD,SA,5035,570 Zoe Square,ARDROSSAN,SA,5571,-34.9486638,138.5743627,-34.424675,137.915867
keenan@yahoo.com,Sienna,Cassin,458 Jackson View Rd,ARRINO,WA,6519,21 Rose Manor,ALLANOOKA,WA,6525,-29.4418416,115.6279102,-29.0450975,115.10024335283742
malik@gmail.com,Mia,Erdman,44 Skye Way,AIRVILLE,QLD,4807,758 Ashley Crescent,ALBERT PARK,SA,5014,-19.6372465,147.35056619813304,-34.8762326,138.5214767
somer@yahoo.com,Sam,Bode,2220 Noah Terrace,ARTARMON,NSW,2064,1607 Keeling Crest,ARTHURS CREEK,VIC,3099,-33.8084051,151.184511,-37.5836798,145.207132
katelin.kutch@yahoo.com,Sebastian,Dooley,11 Jessica Island,ARKELL,NSW,2795,778 Thomas Plaza,AUBURN,QLD,4413,-33.7316723,149.3844415,-25.9873525,150.48920051309403
verlie@yahoo.com,Isla,Keeling,22 David Trail,AIRDS,NSW,2560,746 Samantha Crescent,ARIAH PARK,NSW,2665,-34.09,150.8261111,-34.3488941,147.2175709
coy_dare@gmail.com,Abby,Rees,1684 Ashley Meadow,ALLENDALE NORTH,SA,5373,298 Madison Ridge,AUSTINS FERRY,TAS,7011,-34.3014671,138.9157278,-42.7736101,147.2486399
patrick@gmail.com,Hamish,Armstrong,556 Fahey Grove,ARKELL,NSW,2795,2719 Callum Boulevard,ARALUEN,NSW,2622,-33.7316723,149.3844415,-35.6483333,149.8177778
tad@yahoo.com,Imogen,Roberts,31 Zac Island,AWABA,NSW,2283,9230 Keeling Drive,ALLGOMERA,NSW,2441,-33.0129364,151.5416169,-30.8133333,152.8052778
lajuana@yahoo.com,Lilly,Bruen,354 Dietrich Place,AVON,SA,5501,47 Sebastian Ridge,AUSTRALIND,WA,6233,-34.27690615,138.33903101339558,-33.2807362,115.7204483
gilbert@hotmail.com,Ashton,Kohler,222 Hahn Road,ARGOON,QLD,4702,26 Jesse Avenue,APSLEY,TAS,7030,-24.240327,150.4940057,-42.4326647,147.1444454
nicholas_funk@gmail.com,Kai,Daniel,4354 Turcotte Place,ANNANDALE,QLD,4814,8450 Oscar Run,AVONDALE,QLD,4670,-19.3122951,146.7790291,-24.764496,152.14287334485806
karan@hotmail.com,Joshua,Mckenzie,403 Xavier Court,AVENEL,VIC,3664,5563 Harber Station St,ARMSTRONG CREEK,VIC,3217,-36.932182499999996,145.31296101521568,-38.2341184,144.3709512
retta@gmail.com,Angus,Dickens,536 Paige Crescent,ANDERLEIGH,QLD,4570,942 Stella Grove,ARCHER RIVER,QLD,4892,-26.0174055,152.67900356039007,-13.3673745,142.58087573798585
asa.parker@gmail.com,Jayden,Rolfson,19 Kai Place,ANINDILYAKWA,NT,822,822 Abigail Drive,ADELAIDE PARK,QLD,4703,-13.928577149999999,136.55312163956205,-23.0896126,150.7019728
kandis@hotmail.com,Heidi,O'reilly,133 Maya Way,ALBINIA,QLD,4722,243 Fisher Run,ARMATREE,NSW,2828,-24.449273499999997,148.4026185586191,-31.4470716,148.4792822
alexander_cummerata@gmail.com,Madison,Green,8257 Michael Summit,ARANBANGA,QLD,4625,58 Larson Island,ARRAWARRA,NSW,2456,-25.8130915,151.6578500985112,-30.0511111,153.1911111
anastasia.walter@hotmail.com,Imogen,Wilkinson,749 Andrew Road,AVENUE RANGE,SA,5273,992 Watson Island,ALONNAH,TAS,7150,-36.9417631,140.230672,-43.31594,147.24409
elbert.carroll@gmail.com,Bella,Durgan,839 Kayla Grove,AMAROO,ACT,2914,3800 Mia Way,ARTHURS SEAT,VIC,3936,-35.169587,149.1280212,-38.3543449,144.9537421
nakisha_jenkins@gmail.com,Mia,Owen,292 Kai Mews,ABBOTSHAM,TAS,7315,360 Morgan Crescent,ARAKOON,NSW,2431,-41.21302,146.17677,-30.8864757,153.0709147
audrea@hotmail.com,Anthony,O'hara,76 Grace Circle,ASHVILLE,SA,5259,60 Leo Way,ANNERLEY,QLD,4103,-35.518972700000006,139.3786323084904,-27.5126515,153.0325838412872
macie@hotmail.com,Jessica,Armstrong,7960 Leannon Island,ARTHURVILLE,NSW,2820,75 Declan Grove,ARROWSMITH,WA,6525,-32.5657102,148.7381793,-29.554151,115.11588485488761
roosevelt_keler@yahoo.com,Charlotte,Mueller,48 Adams Plaza,AUBIGNY,QLD,4401,58 Conroy Street,ALICE CREEK,QLD,4610,-27.509236,151.6659979299971,-26.763254,151.61703213780874
nicholle@yahoo.com,Benjamin,Phillips,14 Stokes Plaza,ASHWELL,QLD,4340,17 Wood Mall,ALLANDALE,QLD,4310,-27.624730999999997,152.5526729601424,-28.005099,152.75630367426655
kacy.swaniawski@hotmail.com,Darcy,Carroll,25 West Lane,ARANDA,ACT,2614,62 Luca Court,ADA,VIC,3833,-35.2580548,149.0804262,-37.840864499999995,145.85528242041127
mack@yahoo.com,Lara,Kunde,31 Isabella Estate Dr,AUBURN VALE,NSW,2360,24 Klein Knoll,ALBANVALE,VIC,3021,-29.8208333,151.0452778,-37.7460824,144.7685623
georgina@yahoo.com,Georgia,Bergstrom,423 Eva Meadow,ANGLE PARK,SA,5010,69 Alyssa Lane,APSLEY,TAS,7030,-34.8566301,138.5610335,-42.4326647,147.1444454
terrence.kris@hotmail.com,Paige,Alexander,7259 Patrick Grove,ASHMORE,QLD,4214,169 Sophia Boulevard,ATHELSTONE,SA,5076,-27.9909266,153.3770522,-34.8714792,138.7054458
jami_halvorson@yahoo.com,John,Christiansen,5466 Layla Loop,AMELUP,WA,6338,3155 Charlotte Hill,ALICE,NSW,2469,-34.2237086,118.2203895,-29.0523141,152.5917463
fritz@yahoo.com,Lillian,Harber,9720 Mcdermott Mall,ALLENDALE NORTH,SA,5373,879 Stewart Mall,ADAVALE,QLD,4474,-34.3014671,138.9157278,-25.9084136,144.5976948
tonette_wilkinson@yahoo.com,Poppy,Beatty,99 Justin Circle,ALTONA,VIC,3018,5530 Thomson Estate Dr,ASHMORE,QLD,4214,-37.86715875,144.82949742472704,-27.9909266,153.3770522
jewel.walter@yahoo.com,Willow,Haley,555 Grace Drive,ALSTONVILLE,NSW,2477,90 Matthew Circle,ADAMINABY,NSW,2629,-28.8412757,153.4405813,-35.9955556,148.7747222
darwin.ernser@hotmail.com,Tyler,Grimes,789 Dickens Junction,ABBEYARD,VIC,3737,826 Becker Place,ALFRED COVE,WA,6154,-37.01814195,146.79360433886188,-32.0328506,115.8170316
vernon_will@yahoo.com,Charli,Rodriguez,31 Oscar Lane,AVELEY,WA,6069,386 Ward Boulevard,ALBION,QLD,4010,-31.787069,115.9862261,-27.4303648,153.0420618
ashley@yahoo.com,Joseph,Lee,50 Lola Drive,ANTECHAMBER BAY,SA,5222,1882 Chloe Hill,ASPENDALE GARDENS,VIC,3195,-35.78828795,138.0574577581023,-38.0221438,145.11984
haan@gmail.com,Grace,Hamilton,82 Jacobi Estate Dr,ALLAN,QLD,4370,72 Dylan Parkway,AVONSLEIGH,VIC,3782,-28.1973325,151.95034279175152,-37.9208356,145.4688212
wilber@hotmail.com,Andrew,Mason,7193 Stokes View Rd,ARATULA,NSW,2714,687 James Ridge,ALUMY CREEK,NSW,2460,-35.8095072,145.2762733,-29.6483333,152.9511111
gail@yahoo.com,Callum,Clarke,36 Hunter Avenue,AITKENVALE,QLD,4814,118 Borer Loop,ALSACE,QLD,4702,-19.3019469,146.7660472,-23.287394,149.2905304575663
gayle_hudson@hotmail.com,Ruby,Jacobs,9691 Isaac Ridge,ALBERTON,SA,5014,7944 West Ridge,ANGLESEA,VIC,3230,-34.8590292,138.5161266,-38.4051948,144.188958
marla@hotmail.com,Mitchell,Rose,1730 Clark Manor,ALCOMIE,TAS,7330,52 Eve Court,ALDINGA,SA,5173,-40.9348744,145.186698,-35.2673234,138.4831296
mendy.wilkinson@hotmail.com,Anthony,Nolan,548 West Ridge,ALTONA NORTH,VIC,3025,67 Edwards Boulevard,ARNOLD,VIC,3551,-37.8378229,144.8342853,-36.6721335,143.8583019665265
antoinette@gmail.com,Levi,Cronin,36 O'keefe Knoll,ANGLERS REACH,NSW,2629,87 Holly Run,ARCADIA VALE,NSW,2283,-36.0013327,148.6624296,-33.0605545,151.5842888
myrtis@gmail.com,Christian,Dooley,1558 Wilderman Mall,ALISON,NSW,2259,3502 Conroy Loop,ALLANOOKA,WA,6525,-33.265,151.3983333,-29.0450975,115.10024335283742
lucy@yahoo.com,Finn,Rowe,73 Heller Knoll,AMAROO,ACT,2914,59 Jake Junction,ARGOON,QLD,4702,-35.169587,149.1280212,-24.240327,150.4940057
willis.swaniawski@gmail.com,Charlie,Anderson,63 Violet Terrace,ADAMSVALE,WA,6375,32 Alexandra Loop,ALICE CREEK,QLD,4610,-32.2145105,117.72715941084573,-26.763254,151.61703213780874
milan_damore@yahoo.com,Savannah,Nader,9323 Amy Plaza,AGNES,VIC,3962,2377 Amelia Track,AVOCA BEACH,NSW,2251,-38.684747,146.3962845181981,-33.465,151.4344444
roscoe@gmail.com,Victoria,Russel,7613 Amber Manor,ATHOL PARK,SA,5012,53 Toby Hill,ALBERTA,QLD,4702,-34.8560674,138.5428326,-24.3466125,149.77663219322122
elenore.roberts@gmail.com,Caleb,Hall,2038 Huel Mall,ARALUEN,QLD,4570,601 Rose Meadow,ARROWSMITH,WA,6525,-26.158403,152.6597339079196,-29.554151,115.11588485488761
hubert_lebsack@yahoo.com,Amelia,Thomas,9802 Hayes Plaza,ABERDEEN,TAS,7310,65 Glover Square,AVOCA,VIC,3467,-41.2476,146.32856,-37.0889278,143.473745
jeromy@hotmail.com,Lauren,Hermann,541 O'reilly Loop,ARAWATA,VIC,3951,52 Kuhn Ridge,APPLETHORPE,QLD,4378,-38.394622,145.88277296771855,-28.615750499999997,151.93600915657788
huey_rolfson@hotmail.com,Joel,Tillman,43 Caitlin Manor,ASHWOOD,VIC,3147,319 Rodriguez Mall,ARTARMON,NSW,2064,-37.866672,145.1022346,-33.8084051,151.184511
jc.treutel@yahoo.com,Jade,Schroeder,52 Isabella Terrace,AIRDS,NSW,2560,60 Gutmann Junction,AMBER,QLD,4871,-34.09,150.8261111,-17.679023,144.29345151200465
kayla@gmail.com,Charli,Beier,53 Lola Crescent,ARCADIA VALE,NSW,2283,8008 Howell Mall,ADAMSTOWN HEIGHTS,NSW,2289,-33.0605545,151.5842888,-32.9488889,151.7108333
wilburn@yahoo.com,Gemma,Ernser,19 Rohan Lane,ADVANCETOWN,QLD,4211,699 Ella Hill,ALAWOONA,SA,5311,-28.061915,153.27813001807078,-34.7363837,140.509663
kirby@gmail.com,Hugo,Champlin,45 Jackson Lane,AMOSFIELD,NSW,4380,2122 Evie Way,AUSTRAL,NSW,2179,-28.6485408,152.0672577,-33.9282672,150.8082824
ciara@yahoo.com,Alice,Johnson,3921 Jade Manor,ALFRED COVE,WA,6154,17 Ella Mall,ANSONS BAY,TAS,7264,-32.0328506,115.8170316,-41.0372935,148.2691093
malia.murazik@gmail.com,Oliver,Hermiston,8851 Hermiston Mews,ASHTONFIELD,NSW,2323,84 Alexander Street,AVON PLAINS,VIC,3477,-32.7744309,151.5999656,-36.534716,142.94016749686682
milford@gmail.com,Mia,Schroeder,160 Turner Boulevard,ANNANDALE,NSW,2038,882 Christopher Lane,ASHWELL,QLD,4340,-33.881224,151.1709976,-27.624730999999997,152.5526729601424
jamal_ward@gmail.com,William,Stark,54 Isaac Knoll,AEROGLEN,QLD,4870,45 Eve Plaza,ALEXANDRA,VIC,3714,-16.8843632,145.7451836,-37.192428,145.710775
demarcus_mraz@yahoo.com,Finn,Stanton,66 Elizabeth Court,ACHERON,VIC,3714,72 Griffiths Island,ABINGDON DOWNS,QLD,4892,-37.2705795,145.70824410305514,-17.82558975,143.4711462341683
erick@yahoo.com,Tahlia,Hermann,671 Rose Manor,AVOCA,TAS,7213,97 Jenkins Estate Dr,ARNOLD,VIC,3551,-41.780565,147.723155,-36.6721335,143.8583019665265
norris_howell@gmail.com,Taylor,Baumbach,6893 Hermiston Pass,ALDAVILLA,NSW,2440,6429 Nicholas Track,ABBOTSFORD,VIC,3067,-31.0816667,152.7677778,-37.8045508,144.9988542
leone@hotmail.com,Jasper,Jacobi,7559 Dooley Junction,ALLENSTOWN,QLD,4700,6932 Victoria Drive,ANTECHAMBER BAY,SA,5222,-23.3927941,150.5017017,-35.78828795,138.0574577581023
dennise.bernier@yahoo.com,Maya,Monahan,737 Brown Knoll,ALDERLEY,QLD,4051,9634 Beau View Rd,ARDING,NSW,2358,-27.425098,153.00068855303883,-30.5678695,151.5287754
justin@yahoo.com,Joel,Mccullough,3408 David Road,ARNDELL PARK,NSW,2148,8132 Price Avenue,ANDREWS,SA,5454,-33.79,150.8761111,-33.612293050000005,138.63771004791033
adolph@yahoo.com,Stephanie,Lowe,4444 Bruen Square,ARUNDEL,QLD,4214,992 Ashley Road,ADELAIDE,SA,5000,-27.9360655,153.3653514,-34.9281805,138.5999312
shayne@yahoo.com,Maya,Leannon,42 Adam Station St,ALKIMOS,WA,6038,766 David Track,ABERDARE,NSW,2325,-31.6151863,115.6867494,-32.8427754,151.3802736
otto.walter@gmail.com,Christopher,Schultz,43 Charles Terrace,ANDAMOOKA STATION,SA,5719,2425 Beau Boulevard,ALLANS FLAT,VIC,3691,-30.566585,137.15001419253298,-36.2944155,146.94292341122937
versie@hotmail.com,Mitchell,Owen,8407 Patel Circle,AROONA,QLD,4551,4370 Leannon Manor,ANNA BAY,NSW,2316,-26.7814131,153.1176555,-32.7779061,152.0890203
jefferson_effertz@yahoo.com,Matthew,Reid,3722 Mayer Run,ADVANCETOWN,QLD,4211,88 Zachary Ridge,ARMSTRONG CREEK,VIC,3217,-28.061915,153.27813001807078,-38.2341184,144.3709512
val@yahoo.com,Finn,Jerde,5776 Farrell Junction,AIRVILLE,QLD,4807,180 Graham Summit,ARKSTONE,NSW,2795,-19.6372465,147.35056619813304,-34.0316667,149.6594444
salvador.schuppe@gmail.com,Samuel,Nicolas,63 Luke Run,ARCTURUS,QLD,4722,767 Patel Way,ARCTURUS,QLD,4722,-23.975732999999998,148.32711448169016,-23.975732999999998,148.32711448169016
tera.stehr@gmail.com,Holly,Hettinger,2404 Sauer View Rd,ATKINSONS DAM,QLD,4311,2741 Anna Meadow,AUBREY,VIC,3393,-27.4138715,152.42719678837207,-36.2304585,142.21918302657684
frederick_kuhic@yahoo.com,Joshua,Hermann,513 Lucy Meadow,ALLANDALE,QLD,4310,89 Abigail Lane,ACTON,TAS,7320,-28.005099,152.75630367426655,-41.0675881,145.8932292
illa@gmail.com,Eva,Schroeder,94 Owen Pass,ALICE SPRINGS,NT,870,727 Hahn View Rd,ARGALONG,NSW,2720,-23.6983884,133.8812885,-35.315,148.4344444
allie_collier@hotmail.com,Lilly,Clarke,45 Alexander Crescent,ACHERON,VIC,3714,109 Mikayla Way,ABERDARE,NSW,2325,-37.2705795,145.70824410305514,-32.8427754,151.3802736
bill_blanda@gmail.com,Nate,Hettinger,668 Thomas Place,ANDROMACHE,QLD,4800,780 Elizabeth Place,AMAROO,ACT,2914,-20.5559791,148.4441771,-35.169587,149.1280212
jewel@gmail.com,Christopher,Mayer,8908 Tillman Grove,ALISON,NSW,2420,265 Davies Manor,AYR,QLD,4807,-32.4313903,151.7738859,-19.5758597,147.4044626
delorse.reilly@hotmail.com,Eliza,Klein,34 Conroy Place,ALMA,VIC,3465,96 Sarah Station St,ASHBY,WA,6065,-37.0245202,143.6821566,-31.7311903,115.7975644
josef.shanahan@gmail.com,Leah,Tillman,804 Hessel Track,ALBION,QLD,4822,3707 Nate Crescent,ALICE,NSW,2469,-21.337223,142.625275,-29.0523141,152.5917463
antone@hotmail.com,Scarlett,Williamson,18 Dylan Summit,ATHOL PARK,SA,5012,284 Mccullough Trail,ABBOTSBURY,NSW,2176,-34.8560674,138.5428326,-33.8692846,150.8667029
claude.lubowitz@hotmail.com,Lilly,Shields,12 Hill Plaza,AMBLESIDE,TAS,7310,6197 Mckenzie Plaza,ARTHURS LAKE,TAS,7030,-41.2050163,146.3748003,-42.0083152,146.9556532
paulina@gmail.com,James,Russel,49 Marks Track,ALBURY,NSW,2640,5270 Becker Summit,ABERCROMBIE RIVER,NSW,2795,-36.0737734,146.9135265,-33.9116667,149.3525
madelyn@hotmail.com,Connor,Ferry,58 Addison Court,ARTHURTON,SA,5572,877 Joseph Plaza,AYLMERTON,NSW,2575,-34.2582911,137.7556003,-34.4185998,150.4953005
cher@yahoo.com,Jasper,Haley,19 Elizabeth Island,AMPHITHEATRE,VIC,3468,3038 Towne Mews,ARAWATA,VIC,3951,-37.1815392,143.4005437,-38.394622,145.88277296771855
bettye_powlowski@gmail.com,Ellie,O'reilly,25 Rolfson Parkway,ATWELL,WA,6164,8403 Hamish Island,ASHFIELD,NSW,2131,-32.1484601,115.8659034,-33.8894781,151.1274125
lia.green@gmail.com,Layla,Champlin,607 Sophia Crescent,ANNANGROVE,NSW,2156,70 Hall Parkway,ALBION PARK RAIL,NSW,2527,-33.6574838,150.9460077,-34.5625775,150.7978168
jamal@hotmail.com,Max,Little,3798 Gleason Mall,ANDERLEIGH,QLD,4570,57 Owen Boulevard,ASHMONT,NSW,2650,-26.0174055,152.67900356039007,-35.1244827,147.3325101
jay.thiel@gmail.com,Sarah,Harris,912 Walter Court,ASCOT,VIC,3551,837 O'reilly Knoll,ATWELL,WA,6164,-36.7077539,144.3263626,-32.1484601,115.8659034
mitsue@yahoo.com,Elizabeth,Hansen,73 Feeney Parkway,AIRLIE BEACH,QLD,4802,86 Claire Circle,ARCOONA,SA,5720,-20.272494000000002,148.71814657732955,-31.1302928,137.1034847277803
bobby@hotmail.com,Maddison,Ross,6851 Mclaughlin View Rd,ALEXANDRA HEADLAND,QLD,4572,8250 Mitchell Mall,ARMSTRONG,VIC,3377,-26.669601999999998,153.10175199135801,-37.2140615,142.8822221460385
deandrea@hotmail.com,Leah,Connelly,96 Natalie Plaza,AVOCA,TAS,7213,3409 Mueller Trail,ASHWELL,QLD,4340,-41.780565,147.723155,-27.624730999999997,152.5526729601424
petronila.watsica@yahoo.com,Lara,Rolfson,816 Ella Estate Dr,ABBOTSBURY,NSW,2176,750 Fay Circuit,AFTERLEE,NSW,2474,-33.8692846,150.8667029,-28.5854284,152.8284051
gertude.daniel@hotmail.com,Isabelle,Mason,338 Jacobi Manor,AVOCA,VIC,3467,181 Zoe Lane,APPLE TREE CREEK,QLD,4660,-37.0889278,143.473745,-25.2253249,152.2333455
cherryl@hotmail.com,Jacob,Stewart,84 Toby Mews,AINSLIE,ACT,2602,910 Glover Street,ANGAS VALLEY,SA,5238,-35.2621952,149.14788,-34.7563343,139.2941415
emelina@yahoo.com,Riley,Casper,8381 Daniel Square,ALEXANDRA,VIC,3714,854 Heidi Way,ALBERTA,QLD,4702,-37.192428,145.710775,-24.3466125,149.77663219322122
shae.buckridge@hotmail.com,Alex,Kohler,14 Zara Mall,ALBERT PARK,VIC,3206,1580 Doyle Trail,ARATULA,QLD,4309,-37.8452062,144.957105,-27.9830985,152.53910877179732
adelina@hotmail.com,Taylor,O'connell,36 Cox Road,ACHERON,VIC,3714,7693 Brown Lane,ARMSTRONG BEACH,QLD,4737,-37.2705795,145.70824410305514,-21.445357,149.2686148891206
chase_lakin@yahoo.com,Ryan,Greenholt,259 Isabelle Pass,ALEXANDRA,VIC,3714,35 Chase Boulevard,ALLENDALE EAST,SA,5291,-37.192428,145.710775,-38.0044384,140.7097527
rufina_cremin@hotmail.com,Jack,Kessler,913 Nate Track,ASHGROVE,QLD,4060,82 Schmitt Trail,AMHERST,VIC,3371,-27.44306,152.9827648731527,-37.139846500000004,143.65653903202832
jamie@hotmail.com,Lily,Cole,255 Bahringer Knoll,ALTONA,SA,5351,315 Harry Station St,ARTHURTON,SA,5572,-34.5953566,138.9128691,-34.2582911,137.7556003
ro@gmail.com,Leah,Lowe,359 Bergstrom Loop,ACTON PARK,TAS,7170,718 Erdman Track,ACTON,TAS,7320,-42.8638035,147.4771671,-41.0675881,145.8932292
chasity_johnson@hotmail.com,Ella,Thompson,56 Harris Avenue,ALPURRURULAM,NT,4825,5587 Jerde Crest,AVON,SA,5501,-20.9841539,137.8479596,-34.27690615,138.33903101339558
debra.schneider@yahoo.com,Levi,Watson,9789 Callum Manor,ARDROSS,WA,6153,5054 Amelia Parade,AUGATHELLA,QLD,4477,-32.0271228,115.8355245,-25.7968515,146.5891538
delores.kuhn@yahoo.com,Christopher,Emard,29 Jack Plaza,ACLAND,QLD,4401,4608 Lincoln View Rd,ANAMBAH,NSW,2320,-27.3175555,151.6831346312784,-32.6733333,151.4927778
hans.baumbach@hotmail.com,Addison,Williams,2878 Kemmer Circuit,AUBURN VALE,NSW,2360,36 Hamish View Rd,ALONNAH,TAS,7150,-29.8208333,151.0452778,-43.31594,147.24409
palma@gmail.com,Ryan,Koelpin,9534 Jett Station St,ANDREWS,SA,5454,98 Ella Manor,ADA,VIC,3833,-33.612293050000005,138.63771004791033,-37.840864499999995,145.85528242041127
robbin.baumbach@gmail.com,Eliza,Bartell,830 Robertson Pass,AUSTINVILLE,QLD,4213,696 Adams Plaza,ALBERTON,VIC,3971,-28.1331291,153.3158014,-38.615880000000004,146.66289476813358
julio@hotmail.com,Benjamin,Dooley,42 Tyler Road,AUBIN GROVE,WA,6164,85 Kohler Street,AITKENVALE,QLD,4814,-32.1549359,115.85795,-19.3019469,146.7660472
ira.paucek@gmail.com,Sophie,Kovacek,6418 Emma Lane,ASHWOOD,VIC,3147,9127 Borer Parkway,AUGUSTA,WA,6290,-37.866672,145.1022346,-34.3156059,115.1605864
elisha@hotmail.com,Taylor,Erdman,6309 Charli Manor,ASHBY HEIGHTS,NSW,2463,1426 Alana Knoll,ANGLEDALE,NSW,2550,-29.4138187,153.1778299,-36.6316667,149.8844444
giovanni@yahoo.com,Claire,Patel,904 Addison Hill,ARKAROOLA VILLAGE,SA,5732,71 Lockman Mews,ARMSTRONG BEACH,QLD,4737,-30.3118393,139.3353485,-21.445357,149.2686148891206
bryon@yahoo.com,Abby,Khan,80 Abbey Pass,ALTONA,VIC,3018,48 Amber Station St,ANTILL PONDS,TAS,7120,-37.8671223,144.8294793,-42.2081546,147.4044661
brandon@gmail.com,Jasper,Green,7135 Smith Run,ALBION,QLD,4010,57 Doyle Plaza,ANNIEBROOK,WA,6280,-27.4303648,153.0420618,-33.66798,115.1676
terry_macejkovic@gmail.com,Kai,Johnson,37 David Knoll,ALONNAH,TAS,7150,97 Eliza Hill,ALBERT PARK,VIC,3206,-43.31594,147.24409,-37.8452062,144.957105
jacque_haag@gmail.com,Hamish,Mccullough,588 Greenfelder Drive,ALLAMBIE HEIGHTS,NSW,2100,713 Phillips Hill,ARAWATA,VIC,3951,-33.7705067,151.249675,-38.394622,145.88277296771855
leandro.stroman@yahoo.com,Anthony,Schneider,200 White Pass,ALICE,NSW,2469,907 Fisher Trail,ANGOURIE,NSW,2464,-29.0523141,152.5917463,-29.478884,153.3600421
mickey.mclaughlin@hotmail.com,Madeline,Quinn,7869 Rowe Plaza,AYLMERTON,NSW,2575,218 Alexander Circuit,ARGOON,QLD,4702,-34.4185998,150.4953005,-24.240327,150.4940057
cathy_hahn@yahoo.com,Holly,Kovacek,8136 Callum Avenue,AVONSIDE,NSW,2628,890 Tyler Manor,ANDREWS FARM,SA,5114,-36.4105528,148.7200731,-34.6749515,138.6595143
helaine@yahoo.com,Abigail,Baumbach,1252 Jasper Street,AVONMORE,VIC,3559,75 Samantha Knoll,ASHBY,WA,6065,-36.5349865,144.54149899295862,-31.7311903,115.7975644
isadora.powlowski@yahoo.com,Lucas,Hessel,71 Ryan Circuit,ABERFOYLE PARK,SA,5159,657 Erdman Island,ALBERTA,QLD,4702,-35.0705635,138.6011311,-24.3466125,149.77663219322122
emory_koepp@hotmail.com,Jack,Hettinger,799 Durgan Loop,AVALON,VIC,3212,6754 Feeney Grove,ALTONA NORTH,VIC,3025,-38.0844754,144.4258508,-37.8378229,144.8342853
gloria@hotmail.com,John,Koss,92 Moore Trail,AIRE VALLEY,VIC,3237,4468 Smitham Parade,ANGLEDALE,NSW,2550,-38.6929265,143.56269954205587,-36.6316667,149.8844444
cristopher@yahoo.com,Alana,Schmitt,492 Smith Grove,ALSTONVALE,NSW,2477,9424 Cody Square,ANGASTON,SA,5353,-28.7955556,153.4413889,-34.5027712,139.0490357
rolland.crona@hotmail.com,Amelia,Welch,87 Farrell Way,AJANA,WA,6532,65 Fahey Trail,ARGENTS HILL,NSW,2449,-27.877268299999997,114.70465419416838,-30.6088889,152.7294444
teresia@yahoo.com,Amelie,Grant,3146 Howell Mall,ABBOTSBURY,NSW,2176,65 Matthew Estate Dr,ANEMBO,NSW,2621,-33.8692846,150.8667029,-35.815,149.4177778
janetta.keebler@gmail.com,Benjamin,Heller,528 Quigley Track,ANSTEAD,QLD,4070,4392 Mccullough Ridge,AMBERLEY,QLD,4306,-27.5404815,152.8638552,-27.6304065,152.6980108651208
george@gmail.com,Emily,Green,109 Walsh Manor,ALTONA NORTH,VIC,3025,951 Muller Place,ALBION PARK,NSW,2527,-37.8378229,144.8342853,-34.5708425,150.7752326
denny_gibson@hotmail.com,Riley,Johns,3976 Koelpin Trail,ASHWELL,QLD,4340,1032 Boyer Summit,AMELUP,WA,6338,-27.624730999999997,152.5526729601424,-34.2237086,118.2203895
shanel.mcglynn@hotmail.com,Aaron,Grant,756 Oliver Terrace,AVOCA BEACH,NSW,2251,6801 Daniel Crescent,ARKAROOLA VILLAGE,SA,5732,-33.465,151.4344444,-30.3118393,139.3353485
rodney@yahoo.com,Claire,Garden,89 Ebert Mews,AXE CREEK,VIC,3551,26 George Parade,ALPINE,NSW,2575,-36.863510000000005,144.38470220073737,-34.4091114,150.5217411
palmer_ankunding@gmail.com,Daniel,Gleason,84 Jasmine Circle,AUSTRALIND,WA,6233,445 Emily View Rd,ASCOT PARK,SA,5043,-33.2807362,115.7204483,-34.9881162,138.5610603
fairy.morar@gmail.com,Andrew,Langworth,425 Harry Summit,APPLETHORPE,QLD,4378,42 Rodriguez Circle,ALLAN,QLD,4370,-28.615750499999997,151.93600915657788,-28.1973325,151.95034279175152
elton@gmail.com,Marcus,Grady,12 Wilderman Circuit,AVALON,VIC,3212,820 Michael Loop,ATTUNGA,NSW,2345,-38.0844754,144.4258508,-30.9283982,150.8437118
shonta_wehner@yahoo.com,David,Heaney,8830 Jordan Run,ASHWELL,QLD,4340,2334 Kiara Plaza,ANDAMOOKA,SA,5722,-27.624730999999997,152.5526729601424,-30.4534886,137.16501576788045
geoffrey.boyer@gmail.com,Kayla,Leannon,26 Hamilton Way,ARCADIA,NSW,2159,3589 Ashley Crescent,ARCHER RIVER,QLD,4892,-33.6227289,151.0605602,-13.3673745,142.58087573798585
javier_cremin@yahoo.com,Isla,Mclaughlin,68 Lang Island,ACACIA CREEK,NSW,2476,13 Layla Summit,ASHFIELD,NSW,2131,-28.3734397,152.3197734,-33.8894781,151.1274125
carol@gmail.com,Isaac,Lowe,47 Mayer Meadow,ALICE SPRINGS,NT,870,619 Tahlia Station St,ARAMAC,QLD,4726,-23.6983884,133.8812885,-22.9710251,145.2438709
lashandra@yahoo.com,George,Klein,4029 Harris Lane,ARMATREE,NSW,2828,339 Abbey Hill,AMAROO,ACT,2914,-31.4470716,148.4792822,-35.169587,149.1280212
angla.schaden@yahoo.com,Lilly,Goodwin,5475 Watson Place,ALLANS FLAT,VIC,3691,1622 Tremblay Crest,ANCONA,VIC,3715,-36.2944155,146.94292341122937,-36.9668675,145.81378864561063
jan_kaulke@hotmail.com,Isla,Connelly,490 Lachlan Meadow,ABERCROMBIE,NSW,2795,3101 Joshua Island,ALDERSYDE,WA,6306,-33.3910256,149.5556273,-32.315304,117.2578949653911
autumn.keeling@yahoo.com,Eve,Mcdermott,9974 Ryan Mall,ARRIGA,QLD,4880,636 Leo Crescent,ALEXANDRA,QLD,4740,-17.097728,145.32725128704044,-21.162400499999997,149.09573347493057
micah_howell@hotmail.com,James,Monahan,15 Phoenix Place,ANNADALE,SA,5356,5474 Michael Road,ATTUNGA,NSW,2345,-34.3891665,139.3881387,-30.9283982,150.8437118
rashad.von@hotmail.com,Harrison,Phillips,4160 Olson Summit,ALICE,NSW,2469,346 Max Crescent,ALBERT PARK,VIC,3206,-29.0523141,152.5917463,-37.8452062,144.957105
luis@hotmail.com,Edward,Rowe,2891 Greenfelder Parade,ARMATREE,NSW,2828,46 Hermann Circle,ALLANDALE,NSW,2320,-31.4470716,148.4792822,-32.7150027,151.4177731
polly_stark@hotmail.com,Amy,Wolf,4474 Davies Circle,ABERCROMBIE RIVER,NSW,2795,56 Lee Parade,ANDROMACHE,QLD,4800,-33.9116667,149.3525,-20.5559791,148.4441771
sharyl@gmail.com,Max,Jacobson,3975 Joel Square,ABINGDON DOWNS,QLD,4892,2948 Max Place,ARTHURS LAKE,TAS,7030,-17.82558975,143.4711462341683,-42.0083152,146.9556532
jay@gmail.com,Charlie,Hansen,53 Zoe Pass,ADVENTURE BAY,TAS,7150,6432 Archie Place,ALBION,QLD,4010,-43.3609701,147.3284644,-27.4303648,153.0420618
meagan.shields@yahoo.com,Charles,Ferry,406 Jasmine Island,ALBANVALE,VIC,3021,3990 Mckenzie Grove,APPIN,VIC,3579,-37.7460824,144.7685623,-35.875072,143.87390950506887
lonny@yahoo.com,Andrew,Leffler,5944 Campbell View Rd,ALPHINGTON,VIC,3078,1940 Ward Place,ALBION,VIC,3020,-37.7783921,145.0312833,-37.77722335,144.82438949533855
frances@gmail.com,Luke,Smitham,3114 Fisher Circuit,ALEXANDER HEIGHTS,WA,6064,54 Rice Meadow,ALFREDTON,VIC,3350,-31.8271578,115.865815,-37.558214,143.7998153
delmar.oconner@yahoo.com,Stella,Collier,2466 Goodwin Crescent,AVOCA,QLD,4670,43 Toby Trail,ALSTONVALE,NSW,2477,-24.8835577,152.3086117,-28.7955556,153.4413889
yetta.upton@yahoo.com,Isabel,Doyle,6681 Mueller Crest,AUSTINS FERRY,TAS,7011,606 Hannah Run,ARCTURUS,QLD,4722,-42.7736101,147.2486399,-23.975732999999998,148.32711448169016
calandra.sporer@gmail.com,Connor,Wilderman,482 Brown Court,ADELAIDE LEAD,VIC,3465,59 Cormier Terrace,AUSTINMER,NSW,2515,-37.085589999999996,143.6693260420048,-34.3064627,150.9292162
peggie.mertz@yahoo.com,Chelsea,Mann,3733 Gemma Lane,ARMSTRONG,VIC,3377,29 Isabelle Crescent,ANDREWS,SA,5454,-37.2140615,142.8822221460385,-33.612293050000005,138.63771004791033
evelynn@yahoo.com,Madison,Crooks,2671 Champlin Manor,ANDREWS FARM,SA,5114,16 Carter Crest,ASHBURY,NSW,2193,-34.6749515,138.6595143,-33.9001107,151.1180724
mariela@gmail.com,Benjamin,Nader,549 O'keefe Square,AMBY,QLD,4462,4118 Conroy Meadow,AGERY,SA,5558,-26.532866499999997,148.1731617453616,-34.1568103,137.743458
gail_hoeger@gmail.com,Oscar,Bayer,6898 Schmidt Run,ARGYLE,VIC,3523,530 Gibson Mall,AUBIN GROVE,WA,6164,-36.967044,144.71503036879437,-32.1549359,115.85795
todd@hotmail.com,Imogen,Langworth,2171 Crooks Pass,ANNANDALE,NSW,2038,5980 Isabel Square,APPLEBY,NSW,2340,-33.881224,151.1709976,-30.965,150.8511111
kelsie_hilpert@yahoo.com,Claudia,Bauch,129 Henry Station St,ADELAIDE,SA,5000,40 Ashton Terrace,ASHGROVE,QLD,4060,-34.9281805,138.5999312,-27.44306,152.9827648731527
jee@hotmail.com,William,Davis,1340 Sam Crescent,ARCADIA SOUTH,VIC,3631,88 Botsford Grove,ADELAIDE PARK,QLD,4703,-36.5931025,145.38127437318553,-23.0896126,150.7019728
margorie.cummerata@yahoo.com,Jade,Jackson,6648 Piper Loop,ASHMORE,QLD,4214,66 Aaron Knoll,ABERDEEN,TAS,7310,-27.9909266,153.3770522,-41.2476,146.32856
margarito_lemke@yahoo.com,Riley,Mills,880 Patrick Run,ALICE,NSW,2469,79 Benjamin Circle,APSLEY,NSW,2820,-29.0523141,152.5917463,-32.5983374,148.9677728
melia_hayes@yahoo.com,Lillian,Paterson,1864 Smyth Court,AMERICAN RIVER,SA,5221,62 Anderson Parkway,ANULA,NT,812,-35.7860171,137.7698917,-12.3922305,130.8915248
ellsworth_carter@hotmail.com,Joel,Spencer,60 Fadel Ridge,ABBOTSFORD,NSW,2046,4857 Mann Place,ARANBANGA,QLD,4625,-33.8505529,151.129759,-25.8130915,151.6578500985112
christoper@hotmail.com,Ali,Armstrong,667 Amelia Road,ALTONA NORTH,VIC,3025,2350 Mann Hill,ABELS BAY,TAS,7112,-37.8378229,144.8342853,-43.2276941,147.1000385
nida@hotmail.com,Jordan,O'reilly,41 Bauch Plaza,APPLE TREE CREEK,QLD,4660,18 Sanford Crest,ASHVILLE,SA,5259,-25.2253249,152.2333455,-35.518972700000006,139.3786323084904
eli_fritsch@hotmail.com,Kai,Heller,556 Michael Mall,ASHENDON,WA,6111,38 Zac Crest,ALFORD,SA,5555,-32.19139,116.1792,-33.8168462,137.821986
tory@gmail.com,Connor,Murray,68 Luke Parkway,ATTUNGA,NSW,2345,8580 Mackenzie Street,ASHLEY,NSW,2400,-30.9283982,150.8437118,-29.3170008,149.8065619
mauro_willms@yahoo.com,Angus,Quigley,90 Mayer Mews,AUBIN GROVE,WA,6164,90 Ivy Circle,ASHFIELD,NSW,2131,-32.1549359,115.85795,-33.8894781,151.1274125
gala.cummerata@gmail.com,Stella,Reid,8070 Eliza Meadow,ALFORDS POINT,NSW,2234,8467 Kuhn Terrace,ARGYLL,QLD,4721,-33.9839091,151.0241615,-23.253404500000002,147.5442109556709
carlton@yahoo.com,Jake,Kessler,4755 White Meadow,ARCOONA,SA,5720,21 Koelpin Parkway,ALDERSHOT,QLD,4650,-31.1302928,137.1034847277803,-25.4623125,152.66822764580698
milford@gmail.com,Samuel,Walter,989 Cartwright View Rd,ALBACUTYA,VIC,3424,296 Matilda Parkway,ADELAIDE PARK,QLD,4703,-35.736858999999995,141.9679693250011,-23.0896126,150.7019728
patrica_miller@hotmail.com,Max,Lowe,1674 Heller Track,ARDEER,VIC,3022,3962 Roberts Street,AVALON,VIC,3212,-37.7758681,144.8014637,-38.0844754,144.4258508
kay_mosciski@yahoo.com,Noah,Bartoletti,34 Greenfelder Trail,ALEXANDRA BRIDGE,WA,6288,626 James Avenue,ALAWOONA,SA,5311,-34.167174,115.20527026465064,-34.7363837,140.509663
latashia.farrell@yahoo.com,Hugo,Rice,196 O'conner Mall,ANAMBAH,NSW,2320,7745 Anna Track,ARROWSMITH EAST,WA,6519,-32.6733333,151.4927778,-29.5406015,115.35150658582536
barbie_lindgren@hotmail.com,Ryan,Morrison,4003 Archie Ridge,ARATULA,QLD,4309,572 Ryan Crest,ABBEYWOOD,QLD,4613,-27.9830985,152.53910877179732,-26.1075825,151.64642182971647
chas_dare@yahoo.com,Poppy,Adams,331 Madison Square,ABINGTON,QLD,4660,333 Bogan Crescent,ASCOT,VIC,3364,-25.2021516,152.3270752,-37.3982805,143.81169617608398
miles@hotmail.com,Lauren,Fahey,895 Anthony Crest,APPLETHORPE,QLD,4378,433 Lee Run,ARRAWARRA HEADLAND,NSW,2456,-28.615750499999997,151.93600915657788,-30.060426,153.2016851
herbert@gmail.com,James,Anderson,400 Tremblay Loop,ARMSTRONG CREEK,QLD,4520,430 Jack Place,ANDO,NSW,2631,-27.2187059,152.8084209,-36.737995,149.2607397
yvone.barrows@hotmail.com,Hunter,Mitchell,889 Chase Circuit,AVONMORE,VIC,3559,745 Rice Road,ARTHURS CREEK,VIC,3099,-36.5349865,144.54149899295862,-37.5836798,145.207132
clemencia@yahoo.com,Joseph,Hall,964 Harber Island,ABBOTSFORD,NSW,2046,107 Justin Mall,ANGLEDOOL,NSW,2834,-33.8505529,151.129759,-29.1100681,147.9176423
inocencia.bosco@yahoo.com,Eve,Morgan,80 Sophie Trail,ANNANDALE,NSW,2038,311 Lockman Drive,ABERDEEN,TAS,7310,-33.881224,151.1709976,-41.2476,146.32856
shaunte@yahoo.com,Joel,Robinson,6283 Eve Hill,AUSTINVILLE,QLD,4213,9853 Murphy Road,ATWELL,WA,6164,-28.1331291,153.3158014,-32.1484601,115.8659034
oscar_schuster@gmail.com,Jade,Mclaughlin,39 Scarlett Loop,ALICE SPRINGS,NT,870,46 Angelina Estate Dr,ALISON,NSW,2259,-23.6983884,133.8812885,-33.265,151.3983333
rex.volkman@yahoo.com,Ali,Mitchell,525 Aiden Road,ARNOLD,VIC,3551,241 Aiden Estate Dr,ASHMORE,QLD,4214,-36.6721335,143.8583019665265,-27.9909266,153.3770522
stanton.ratke@yahoo.com,Isaac,Heaney,354 Hermann Court,ARGOON,QLD,4702,686 Beatty Estate Dr,ARDMONA,VIC,3629,-24.240327,150.4940057,-36.378979,145.29540546184248
odelia.walter@hotmail.com,Gemma,Larson,13 Lillian Avenue,ARCHIES CREEK,VIC,3995,655 Eli Mall,ADELONG,NSW,2729,-38.548863,145.56498054788307,-35.3074897,148.0631466
evan_davis@gmail.com,Georgia,West,36 Eva Lane,ARTHUR RIVER,TAS,7330,717 Claudia Loop,ARUMPO,NSW,2715,-41.0494219,144.667346,-33.5919444,143.3341667
grover@gmail.com,Alexander,Boyer,94 Glover Street,AROONA,QLD,4551,1288 Rowe Pass,AUGUSTINE HEIGHTS,QLD,4300,-26.7814131,153.1176555,-27.6597333,152.8802803
linda.ohara@gmail.com,Kiara,O'reilly,477 Quinn Island,AMAROO,ACT,2914,27 Little Crest,ANDROMACHE,QLD,4800,-35.169587,149.1280212,-20.5559791,148.4441771
val_kutch@yahoo.com,Georgia,Parker,63 Kutch Meadow,ABERMAIN,NSW,2326,6307 Clarke Boulevard,ALTONA NORTH,VIC,3025,-32.8072172,151.4274977,-37.8378229,144.8342853
